[{"spaceTrack":{"CCSDS_OMM_VERS":"2.0","COMMENT":"GENERATED VIA SPACE-TRACK.ORG API","CREATION_DATE":"2021-07-02T22:26:11","ORIGINATOR":"18 SPCS","OBJECT_NAME":"STARLINK-2038","OBJECT_ID":"2021-012AL","CENTER_NAME":"EARTH","REF_FRAME":"TEME","TIME_SYSTEM":"UTC","MEAN_ELEMENT_THEORY":"SGP4","EPOCH":"2021-07-02T17:36:48.042432","MEAN_MOTION":15.06393302,"ECCENTRICITY":0.0000223,"INCLINATION":53.0516,"RA_OF_ASC_NODE":192.3976,"ARG_OF_PERICENTER":290.8485,"MEAN_ANOMALY":69.248,"EPHEMERIS_TYPE":0,"CLASSIFICATION_TYPE":"U","NORAD_CAT_ID":47654,"ELEMENT_SET_NO":999,"REV_AT_EPOCH":2158,"BSTAR":0.000051101,"MEAN_MOTION_DOT":0.0000048,"MEAN_MOTION_DDOT":0,"SEMIMAJOR_AXIS":6925.369,"PERIOD":95.593,"APOAPSIS":547.389,"PERIAPSIS":547.08,"OBJECT_TYPE":"PAYLOAD","RCS_SIZE":"LARGE","COUNTRY_CODE":"US","LAUNCH_DATE":"2021-02-16","SITE":"AFETR","DECAY_DATE":null,"DECAYED":0,"FILE":3068647,"GP_ID":180170504,"TLE_LINE0":"0 STARLINK-2038","TLE_LINE1":"1 47654U 21012AL  21183.73388938  .00000480  00000-0  51101-4 0  9990","TLE_LINE2":"2 47654  53.0516 192.3976 0000223 290.8485  69.2480 15.06393302 21585"},"version":"v1.0","launch":"600f9a5e8f798e2a4d5f979c","longitude":-37.88733815110301,"latitude":34.26701993385062,"height_km":549.7323213477557,"velocity_kms":7.591452568460505,"id":"60354b0874350a0006fbc51e"},{"spaceTrack":{"CCSDS_OMM_VERS":"2.0","COMMENT":"GENERATED VIA SPACE-TRACK.ORG API","CREATION_DATE":"2021-07-02T22:26:11","ORIGINATOR":"18 SPCS","OBJECT_NAME":"STARLINK-2058","OBJECT_ID":"2021-012AZ","CENTER_NAME":"EARTH","REF_FRAME":"TEME","TIME_SYSTEM":"UTC","MEAN_ELEMENT_THEORY":"SGP4","EPOCH":"2021-07-02T17:15:33.323616","MEAN_MOTION":15.06387954,"ECCENTRICITY":0.0000395,"INCLINATION":53.0535,"RA_OF_ASC_NODE":192.4486,"ARG_OF_PERICENTER":49.43,"MEAN_ANOMALY":310.6724,"EPHEMERIS_TYPE":0,"CLASSIFICATION_TYPE":"U","NORAD_CAT_ID":47667,"ELEMENT_SET_NO":999,"REV_AT_EPOCH":2158,"BSTAR":0.000051669,"MEAN_MOTION_DOT":0.00000488,"MEAN_MOTION_DDOT":0,"SEMIMAJOR_AXIS":6925.385,"PERIOD":95.593,"APOAPSIS":547.524,"PERIAPSIS":546.977,"OBJECT_TYPE":"PAYLOAD","RCS_SIZE":"LARGE","COUNTRY_CODE":"US","LAUNCH_DATE":"2021-02-16","SITE":"AFETR","DECAY_DATE":null,"DECAYED":0,"FILE":3068657,"GP_ID":180170994,"TLE_LINE0":"0 STARLINK-2058","TLE_LINE1":"1 47667U 21012AZ  21183.71913569  .00000488  00000-0  51669-4 0  9993","TLE_LINE2":"2 47667  53.0535 192.4486 0000395  49.4300 310.6724 15.06387954 21581"},"version":"v1.0","launch":"600f9a5e8f798e2a4d5f979c","longitude":70.52096790273696,"latitude":41.21896408950503,"height_km":551.0295592980347,"velocity_kms":7.591559066396673,"id":"60354b0874350a0006fbc524"},{"spaceTrack":{"CCSDS_OMM_VERS":"2.0","COMMENT":"GENERATED VIA SPACE-TRACK.ORG API","CREATION_DATE":"2021-07-02T17:51:43","ORIGINATOR":"18 SPCS","OBJECT_NAME":"STARLINK-2051","OBJECT_ID":"2021-012AT","CENTER_NAME":"EARTH","REF_FRAME":"TEME","TIME_SYSTEM":"UTC","MEAN_ELEMENT_THEORY":"SGP4","EPOCH":"2021-07-02T10:34:48.258912","MEAN_MOTION":15.06409153,"ECCENTRICITY":0.0001194,"INCLINATION":53.0538,"RA_OF_ASC_NODE":173.6988,"ARG_OF_PERICENTER":58.1715,"MEAN_ANOMALY":301.9391,"EPHEMERIS_TYPE":0,"CLASSIFICATION_TYPE":"U","NORAD_CAT_ID":47661,"ELEMENT_SET_NO":999,"REV_AT_EPOCH":2232,"BSTAR":-0.00010437,"MEAN_MOTION_DOT":-0.00001836,"MEAN_MOTION_DDOT":0,"SEMIMAJOR_AXIS":6925.321,"PERIOD":95.592,"APOAPSIS":548.012,"PERIAPSIS":546.359,"OBJECT_TYPE":"PAYLOAD","RCS_SIZE":"LARGE","COUNTRY_CODE":"US","LAUNCH_DATE":"2021-02-16","SITE":"AFETR","DECAY_DATE":null,"DECAYED":0,"FILE":3068555,"GP_ID":180168391,"TLE_LINE0":"0 STARLINK-2051","TLE_LINE1":"1 47661U 21012AT  21183.44083633 -.00001836  00000-0 -10437-3 0  9994","TLE_LINE2":"2 47661  53.0538 173.6988 0001194  58.1715 301.9391 15.06409153 22323"},"version":"v1.0","launch":"600f9a5e8f798e2a4d5f979c","longitude":100.5392395287649,"latitude":-11.91475198614334,"height_km":550.9534393531922,"velocity_kms":7.586537589863974,"id":"60354b0874350a0006fbc520"},{"spaceTrack":{"CCSDS_OMM_VERS":"2.0","COMMENT":"GENERATED VIA SPACE-TRACK.ORG API","CREATION_DATE":"2021-07-02T17:51:43","ORIGINATOR":"18 SPCS","OBJECT_NAME":"STARLINK-2065","OBJECT_ID":"2021-012BE","CENTER_NAME":"EARTH","REF_FRAME":"TEME","TIME_SYSTEM":"UTC","MEAN_ELEMENT_THEORY":"SGP4","EPOCH":"2021-07-02T14:00:01.999872","MEAN_MOTION":15.06401572,"ECCENTRICITY":0.0001689,"INCLINATION":53.0371,"RA_OF_ASC_NODE":163.1464,"ARG_OF_PERICENTER":61.4112,"MEAN_ANOMALY":186.9403,"EPHEMERIS_TYPE":0,"CLASSIFICATION_TYPE":"U","NORAD_CAT_ID":47672,"ELEMENT_SET_NO":999,"REV_AT_EPOCH":358,"BSTAR":-0.0024311,"MEAN_MOTION_DOT":-0.00036311,"MEAN_MOTION_DDOT":0,"SEMIMAJOR_AXIS":6925.344,"PERIOD":95.592,"APOAPSIS":548.378,"PERIAPSIS":546.039,"OBJECT_TYPE":"PAYLOAD","RCS_SIZE":"LARGE","COUNTRY_CODE":"US","LAUNCH_DATE":"2021-02-16","SITE":"AFETR","DECAY_DATE":null,"DECAYED":0,"FILE":3068555,"GP_ID":180168142,"TLE_LINE0":"0 STARLINK-2065","TLE_LINE1":"1 47672U 21012BE  21183.58335648 -.00036311  00000-0 -24311-2 0  9998","TLE_LINE2":"2 47672  53.0371 163.1464 0001689  61.4112 186.9403 15.06401572  3589"},"version":"v1.0","launch":"600f9a5e8f798e2a4d5f979c","longitude":-79.60974951246246,"latitude":23.34334510779708,"height_km":547.0797281058485,"velocity_kms":7.59231736396712,"id":"60354b0874350a0006fbc529"},{"spaceTrack":{"CCSDS_OMM_VERS":"2.0","COMMENT":"GENERATED VIA SPACE-TRACK.ORG API","CREATION_DATE":"2021-07-02T22:26:11","ORIGINATOR":"18 SPCS","OBJECT_NAME":"STARLINK-2043","OBJECT_ID":"2021-012AR","CENTER_NAME":"EARTH","REF_FRAME":"TEME","TIME_SYSTEM":"UTC","MEAN_ELEMENT_THEORY":"SGP4","EPOCH":"2021-07-02T22:00:00.999936","MEAN_MOTION":15.73184012,"ECCENTRICITY":0.0004099,"INCLINATION":53.0437,"RA_OF_ASC_NODE":141.5302,"ARG_OF_PERICENTER":17.5041,"MEAN_ANOMALY":339.7789,"EPHEMERIS_TYPE":0,"CLASSIFICATION_TYPE":"U","NORAD_CAT_ID":47659,"ELEMENT_SET_NO":999,"REV_AT_EPOCH":2231,"BSTAR":0.00023818,"MEAN_MOTION_DOT":0.00032931,"MEAN_MOTION_DDOT":0,"SEMIMAJOR_AXIS":6727.941,"PERIOD":91.534,"APOAPSIS":352.564,"PERIAPSIS":347.048,"OBJECT_TYPE":"PAYLOAD","RCS_SIZE":"LARGE","COUNTRY_CODE":"US","LAUNCH_DATE":"2021-02-16","SITE":"AFETR","DECAY_DATE":null,"DECAYED":0,"FILE":3068649,"GP_ID":180170523,"TLE_LINE0":"0 STARLINK-2043","TLE_LINE1":"1 47659U 21012AR  21183.91667824  .00032931  00000-0  23818-3 0  9998","TLE_LINE2":"2 47659  53.0437 141.5302 0004099  17.5041 339.7789 15.73184012 22317"},"version":"v1.0","launch":"600f9a5e8f798e2a4d5f979c","longitude":31.260978195966786,"latitude":33.87910756749194,"height_km":353.4728452240588,"velocity_kms":7.700759251522564,"id":"60354b0874350a0006fbc526"},{"spaceTrack":{"CCSDS_OMM_VERS":"2.0","COMMENT":"GENERATED VIA SPACE-TRACK.ORG API","CREATION_DATE":"2021-07-02T17:51:43","ORIGINATOR":"18 SPCS","OBJECT_NAME":"STARLINK-2027","OBJECT_ID":"2021-012AB","CENTER_NAME":"EARTH","REF_FRAME":"TEME","TIME_SYSTEM":"UTC","MEAN_ELEMENT_THEORY":"SGP4","EPOCH":"2021-07-02T14:00:01.999872","MEAN_MOTION":15.06423029,"ECCENTRICITY":0.0009034,"INCLINATION":53.0235,"RA_OF_ASC_NODE":163.2286,"ARG_OF_PERICENTER":358.8058,"MEAN_ANOMALY":214.7968,"EPHEMERIS_TYPE":0,"CLASSIFICATION_TYPE":"U","NORAD_CAT_ID":47645,"ELEMENT_SET_NO":999,"REV_AT_EPOCH":358,"BSTAR":-0.0022565,"MEAN_MOTION_DOT":-0.00033791,"MEAN_MOTION_DDOT":0,"SEMIMAJOR_AXIS":6925.278,"PERIOD":95.591,"APOAPSIS":553.399,"PERIAPSIS":540.887,"OBJECT_TYPE":"PAYLOAD","RCS_SIZE":"LARGE","COUNTRY_CODE":"US","LAUNCH_DATE":"2021-02-16","SITE":"AFETR","DECAY_DATE":null,"DECAYED":0,"FILE":3068555,"GP_ID":180168389,"TLE_LINE0":"0 STARLINK-2027","TLE_LINE1":"1 47645U 21012AB  21183.58335648 -.00033791  00000-0 -22565-2 0  9996","TLE_LINE2":"2 47645  53.0235 163.2286 0009034 358.8058 214.7968 15.06423029  3582"},"version":"v1.0","launch":"600f9a5e8f798e2a4d5f979c","longitude":-101.4768171450216,"latitude":-4.1357730736505935,"height_km":542.4812552127587,"velocity_kms":7.59535251571147,"id":"60354b0874350a0006fbc52c"},{"spaceTrack":{"CCSDS_OMM_VERS":"2.0","COMMENT":"GENERATED VIA SPACE-TRACK.ORG API","CREATION_DATE":"2021-07-02T17:51:43","ORIGINATOR":"18 SPCS","OBJECT_NAME":"STARLINK-2041","OBJECT_ID":"2021-012AP","CENTER_NAME":"EARTH","REF_FRAME":"TEME","TIME_SYSTEM":"UTC","MEAN_ELEMENT_THEORY":"SGP4","EPOCH":"2021-07-02T10:00:16.381728","MEAN_MOTION":15.06406773,"ECCENTRICITY":0.0000234,"INCLINATION":53.0556,"RA_OF_ASC_NODE":193.8256,"ARG_OF_PERICENTER":242.0358,"MEAN_ANOMALY":118.0607,"EPHEMERIS_TYPE":0,"CLASSIFICATION_TYPE":"U","NORAD_CAT_ID":47657,"ELEMENT_SET_NO":999,"REV_AT_EPOCH":2205,"BSTAR":0.000030273,"MEAN_MOTION_DOT":0.0000017,"MEAN_MOTION_DDOT":0,"SEMIMAJOR_AXIS":6925.328,"PERIOD":95.592,"APOAPSIS":547.355,"PERIAPSIS":547.031,"OBJECT_TYPE":"PAYLOAD","RCS_SIZE":"LARGE","COUNTRY_CODE":"US","LAUNCH_DATE":"2021-02-16","SITE":"AFETR","DECAY_DATE":null,"DECAYED":0,"FILE":3068555,"GP_ID":180168890,"TLE_LINE0":"0 STARLINK-2041","TLE_LINE1":"1 47657U 21012AP  21183.41685627  .00000170  00000-0  30273-4 0  9996","TLE_LINE2":"2 47657  53.0556 193.8256 0000234 242.0358 118.0607 15.06406773 22053"},"version":"v1.0","launch":"600f9a5e8f798e2a4d5f979c","longitude":-91.50995743025008,"latitude":-27.57199591603515,"height_km":555.3585113600566,"velocity_kms":7.583932365301291,"id":"60354b0874350a0006fbc530"}]